[{"OBJECT_NAME":"STARLINK-5288","OBJECT_ID":"2023-010AQ","EPOCH":"2026-03-09T22:12:42.597792","MEAN_MOTION":14.98341894,"ECCENTRICITY":0.00026057,"INCLINATION":70.0036,"RA_OF_ASC_NODE":4.0244,"ARG_OF_PERICENTER":234.2915,"MEAN_ANOMALY":125.8002,"EPHEMERIS_TYPE":0,"CLASSIFICATION_TYPE":"U","NORAD_CAT_ID":55307,"ELEMENT_SET_NO":999,"REV_AT_EPOCH":17380,"BSTAR":2.9119841e-5,"MEAN_MOTION_DOT":2.55e-6,"MEAN_MOTION_DDOT":0},{"OBJECT_NAME":"HORACIO","OBJECT_ID":"2024-043A","EPOCH":"2026-03-09T21:54:40.867200","MEAN_MOTION":14.98036627,"ECCENTRICITY":0.00104103,"INCLINATION":97.8349,"RA_OF_ASC_NODE":200.1753,"ARG_OF_PERICENTER":2.9871,"MEAN_ANOMALY":357.1411,"EPHEMERIS_TYPE":0,"CLASSIFICATION_TYPE":"U","NORAD_CAT_ID":59098,"ELEMENT_SET_NO":999,"REV_AT_EPOCH":10980,"BSTAR":0.00038157841,"MEAN_MOTION_DOT":4.455e-5,"MEAN_MOTION_DDOT":0}]
